{"type": "FeatureCollection", "features": [ {"type": "Feature", "properties": {"norad_id": 66545, "name": "SHIJIAN-30A", "group": "last-30-days", "lat": 51.46594384821087, "lon": 67.55695465758416, "alt_km": 513.3444519065497, "timestamp": "2025-12-13T13:34:33.864002+00:00", "meta": {"OBJECT_NAME": "SHIJIAN-30A", "OBJECT_ID": "2025-266A", "EPOCH": "2025-12-12T22:54:50.664384", "MEAN_MOTION": 15.15457203, "ECCENTRICITY": 0.00127581, "INCLINATION": 51.798, "RA_OF_ASC_NODE": 331.8549, "ARG_OF_PERICENTER": 357.4052, "MEAN_ANOMALY": 2.6856, "EPHEMERIS_TYPE": 0, "CLASSIFICATION_TYPE": "U", "NORAD_CAT_ID": 66545, "ELEMENT_SET_NO": 999, "REV_AT_EPOCH": 361, "BSTAR": 0.0010501163, "MEAN_MOTION_DOT": 0.00019897, "MEAN_MOTION_DDOT": 0}, "tle": {"line1": "1 66545U 25266A   25346.95475306  .00019897  00000+0  10501-2 0  9998", "line2": "2 66545  51.7980 331.8549 0012758 357.4052   2.6856 15.15457203  3610"}}, "geometry": {"type": "Point", "coordinates": [67.55695465758416, 51.46594384821087]}}, {"type": "Feature", "properties": {"norad_id": 66546, "name": "SHIJIAN-30B", "group": "last-30-days", "lat": 51.76557760166186, "lon": 57.3551250003863, "alt_km": 512.0763878086127, "timestamp": "2025-12-13T13:34:33.864012+00:00", "meta": {"OBJECT_NAME": "SHIJIAN-30B", "OBJECT_ID": "2025-266B", "EPOCH": "2025-12-12T22:56:29.310720", "MEAN_MOTION": 15.15421149, "ECCENTRICITY": 0.00105145, "INCLINATION": 51.7964, "RA_OF_ASC_NODE": 331.8584, "ARG_OF_PERICENTER": 0.505, "MEAN_ANOMALY": 359.5935, "EPHEMERIS_TYPE": 0, "CLASSIFICATION_TYPE": "U", "NORAD_CAT_ID": 66546, "ELEMENT_SET_NO": 999, "REV_AT_EPOCH": 361, "BSTAR": 0.00094489076, "MEAN_MOTION_DOT": 0.00017837, "MEAN_MOTION_DDOT": 0}, "tle": {"line1": "1 66546U 25266B   25346.95589480  .00017837  00000+0  94489-3 0  9998", "line2": "2 66546  51.7964 331.8584 0010514   0.5050 359.5935 15.15421149  3616"}}, "geometry": {"type": "Point", "coordinates": [57.3551250003863, 51.76557760166186]}}, {"type": "Feature", "properties": {"norad_id": 66547, "name": "SHIJIAN-30C", "group": "last-30-days", "lat": 51.65052724241598, "lon": 53.5319476571032, "alt_km": 513.0043642112751, "timestamp": "2025-12-13T13:34:33.864021+00:00", "meta": {"OBJECT_NAME": "SHIJIAN-30C", "OBJECT_ID": "2025-266C", "EPOCH": "2025-12-12T22:57:05.114880", "MEAN_MOTION": 15.1537623, "ECCENTRICITY": 0.00113864, "INCLINATION": 51.7973, "RA_OF_ASC_NODE": 331.8628, "ARG_OF_PERICENTER": 352.2271, "MEAN_ANOMALY": 7.8527, "EPHEMERIS_TYPE": 0, "CLASSIFICATION_TYPE": "U", "NORAD_CAT_ID": 66547, "ELEMENT_SET_NO": 999, "REV_AT_EPOCH": 361, "BSTAR": 0.00085389821, "MEAN_MOTION_DOT": 0.00016068, "MEAN_MOTION_DDOT": 0}, "tle": {"line1": "1 66547U 25266C   25346.95630920  .00016068  00000+0  85390-3 0  9991", "line2": "2 66547  51.7973 331.8628 0011386 352.2271   7.8527 15.15376230  3616"}}, "geometry": {"type": "Point", "coordinates": [53.5319476571032, 51.65052724241598]}}, {"type": "Feature", "properties": {"norad_id": 66548, "name": "CZ-2C R/B", "group": "last-30-days", "lat": -51.79484043082955, "lon": -115.13358696092742, "alt_km": 488.2164162561985, "timestamp": "2025-12-13T13:34:33.864030+00:00", "meta": {"OBJECT_NAME": "CZ-2C R/B", "OBJECT_ID": "2025-266D", "EPOCH": "2025-12-12T23:50:44.359008", "MEAN_MOTION": 15.30184769, "ECCENTRICITY": 0.00838842, "INCLINATION": 52.0548, "RA_OF_ASC_NODE": 330.071, "ARG_OF_PERICENTER": 173.8731, "MEAN_ANOMALY": 186.3301, "EPHEMERIS_TYPE": 0, "CLASSIFICATION_TYPE": "U", "NORAD_CAT_ID": 66548, "ELEMENT_SET_NO": 999, "REV_AT_EPOCH": 365, "BSTAR": 0.00045136232, "MEAN_MOTION_DOT": 0.00014522, "MEAN_MOTION_DDOT": 0}, "tle": {"line1": "1 66548U 25266D   25346.99356897  .00014522  00000+0  45136-3 0  9991", "line2": "2 66548  52.0548 330.0710 0083884 173.8731 186.3301 15.30184769  3650"}}, "geometry": {"type": "Point", "coordinates": [-115.13358696092742, -51.79484043082955]}}, {"type": "Feature", "properties": {"norad_id": 66549, "name": "SHIJIAN-28", "group": "last-30-days", "lat": 3.968436128985184, "lon": 43.08366963301103, "alt_km": 35782.20338437115, "timestamp": "2025-12-13T13:34:33.864041+00:00", "meta": {"OBJECT_NAME": "SHIJIAN-28", "OBJECT_ID": "2025-277A", "EPOCH": "2025-12-12T22:12:21.860928", "MEAN_MOTION": 1.00272348, "ECCENTRICITY": 7.859e-05, "INCLINATION": 5.018, "RA_OF_ASC_NODE": 274.9534, "ARG_OF_PERICENTER": 131.7574, "MEAN_ANOMALY": 125.1015, "EPHEMERIS_TYPE": 0, "CLASSIFICATION_TYPE": "U", "NORAD_CAT_ID": 66549, "ELEMENT_SET_NO": 999, "REV_AT_EPOCH": 28, "BSTAR": 0, "MEAN_MOTION_DOT": -3.47e-06, "MEAN_MOTION_DDOT": 0}, "tle": {"line1": "1 66549U 25277A   25346.92525302 -.00000347  00000+0  00000+0 0  9994", "line2": "2 66549   5.0180 274.9534 0000785 131.7574 125.1015  1.00272348   280"}}, "geometry": {"type": "Point", "coordinates": [43.08366963301103, 3.968436128985184]}}, {"type": "Feature", "properties": {"norad_id": 66550, "name": "CZ-7A R/B", "group": "last-30-days", "lat": 14.322018361127522, "lon": -6.901401973109497, "alt_km": 7299.000929276054, "timestamp": "2025-12-13T13:34:33.864052+00:00", "meta": {"OBJECT_NAME": "CZ-7A R/B", "OBJECT_ID": "2025-277B", "EPOCH": "2025-12-12T06:12:30.080736", "MEAN_MOTION": 2.67691101, "ECCENTRICITY": 0.70327133, "INCLINATION": 14.3853, "RA_OF_ASC_NODE": 270.1306, "ARG_OF_PERICENTER": 188.5498, "MEAN_ANOMALY": 145.8941, "EPHEMERIS_TYPE": 0, "CLASSIFICATION_TYPE": "U", "NORAD_CAT_ID": 66550, "ELEMENT_SET_NO": 999, "REV_AT_EPOCH": 33, "BSTAR": 0.0023540445, "MEAN_MOTION_DOT": 0.01686496, "MEAN_MOTION_DDOT": -2.63066e-07}, "tle": {"line1": "1 66550U 25277B   25346.25868149  .01686496 -26307-6  23540-2 0  9999", "line2": "2 66550  14.3853 270.1306 7032713 188.5498 145.8941  2.67691101   334"}}, "geometry": {"type": "Point", "coordinates": [-6.901401973109497, 14.322018361127522]}}, {"type": "Feature", "properties": {"norad_id": 66551, "name": "USA 568", "group": "last-30-days", "lat": 17.940527281255495, "lon": -10.670669364387011, "alt_km": 145.63179919614868, "timestamp": "2025-12-13T13:34:33.864063+00:00", "meta": {"OBJECT_NAME": "USA 568", "OBJECT_ID": "2024-134K", "EPOCH": "2025-12-02T16:00:03.000096", "MEAN_MOTION": 15.87051116, "ECCENTRICITY": 7.17e-05, "INCLINATION": 53.1571, "RA_OF_ASC_NODE": 236.7807, "ARG_OF_PERICENTER": 110.7411, "MEAN_ANOMALY": 313.9012, "EPHEMERIS_TYPE": 0, "CLASSIFICATION_TYPE": "U", "NORAD_CAT_ID": 66551, "ELEMENT_SET_NO": 999, "REV_AT_EPOCH": 262, "BSTAR": -0.0074303, "MEAN_MOTION_DOT": -0.01709685, "MEAN_MOTION_DDOT": 0}, "tle": {"line1": "1 66551U 24134K   25336.66670139 -.01709685  00000+0 -74303-2 0  9990", "line2": "2 66551  53.1571 236.7807 0000717 110.7411 313.9012 15.87051116  2624"}}, "geometry": {"type": "Point", "coordinates": [-10.670669364387011, 17.940527281255495]}}, {"type": "Feature", "properties": {"norad_id": 66554, "name": "GLOBAL-33", "group": "last-30-days", "lat": -35.47133391204927, "lon": -0.08414567510431861, "alt_km": 475.3009693688591, "timestamp": "2025-12-13T13:34:33.864074+00:00", "meta": {"OBJECT_NAME": "GLOBAL-33", "OBJECT_ID": "2025-267A", "EPOCH": "2025-12-12T22:11:15.097056", "MEAN_MOTION": 15.31628839, "ECCENTRICITY": 0.00041818, "INCLINATION": 42.0218, "RA_OF_ASC_NODE": 55.9266, "ARG_OF_PERICENTER": 56.2465, "MEAN_ANOMALY": 303.8771, "EPHEMERIS_TYPE": 0, "CLASSIFICATION_TYPE": "U", "NORAD_CAT_ID": 66554, "ELEMENT_SET_NO": 999, "REV_AT_EPOCH": 343, "BSTAR": 0.0003014631, "MEAN_MOTION_DOT": 9.167e-05, "MEAN_MOTION_DDOT": 0}, "tle": {"line1": "1 66554U 25267A   25346.92448029  .00009167  00000+0  30146-3 0  9995", "line2": "2 66554  42.0218  55.9266 0004181  56.2465 303.8771 15.31628839  3435"}}, "geometry": {"type": "Point", "coordinates": [-0.08414567510431861, -35.47133391204927]}}, {"type": "Feature", "properties": {"norad_id": 66555, "name": "ELECTRON KICK STAGE R/B", "group": "last-30-days", "lat": 5.806270033796281, "lon": 58.5409688562593, "alt_km": 463.26674147045014, "timestamp": "2025-12-13T13:34:33.864083+00:00", "meta": {"OBJECT_NAME": "ELECTRON KICK STAGE R/B", "OBJECT_ID": "2025-267B", "EPOCH": "2025-12-12T21:54:01.987200", "MEAN_MOTION": 15.32821781, "ECCENTRICITY": 0.00065385, "INCLINATION": 42.0199, "RA_OF_ASC_NODE": 55.8356, "ARG_OF_PERICENTER": 54.3056, "MEAN_ANOMALY": 305.8389, "EPHEMERIS_TYPE": 0, "CLASSIFICATION_TYPE": "U", "NORAD_CAT_ID": 66555, "ELEMENT_SET_NO": 999, "REV_AT_EPOCH": 343, "BSTAR": 0.0010491581, "MEAN_MOTION_DOT": 0.00033906, "MEAN_MOTION_DDOT": 0}, "tle": {"line1": "1 66555U 25267B   25346.91252300  .00033906  00000+0  10492-2 0  9999", "line2": "2 66555  42.0199  55.8356 0006538  54.3056 305.8389 15.32821781  3435"}}, "geometry": {"type": "Point", "coordinates": [58.5409688562593, 5.806270033796281]}}, {"type": "Feature", "properties": {"norad_id": 66557, "name": "STARLINK-35699", "group": "last-30-days", "lat": 22.70748656688051, "lon": 143.05290715693476, "alt_km": 411.96152755490493, "timestamp": "2025-12-13T13:34:33.864092+00:00", "meta": {"OBJECT_NAME": "STARLINK-35699", "OBJECT_ID": "2025-268A", "EPOCH": "2025-12-12T20:00:01.999872", "MEAN_MOTION": 15.50577695, "ECCENTRICITY": 0.00014372, "INCLINATION": 42.9999, "RA_OF_ASC_NODE": 120.6533, "ARG_OF_PERICENTER": 275.5881, "MEAN_ANOMALY": 346.2771, "EPHEMERIS_TYPE": 0, "CLASSIFICATION_TYPE": "U", "NORAD_CAT_ID": 66557, "ELEMENT_SET_NO": 999, "REV_AT_EPOCH": 468, "BSTAR": -0.00047797952, "MEAN_MOTION_DOT": -0.0002828, "MEAN_MOTION_DDOT": 0}, "tle": {"line1": "1 66557U 25268A   25346.83335648 -.00028280  00000+0 -47798-3 0  9991", "line2": "2 66557  42.9999 120.6533 0001437 275.5881 346.2771 15.50577695  4682"}}, "geometry": {"type": "Point", "coordinates": [143.05290715693476, 22.70748656688051]}}]}